     2              NAVIGATION DATA                         RINEX VERSION / TYPE
CCRINEXN V1.6.0 UX  CDDIS               12-FEB-23 23:31     PGM / RUN BY / DATE 
IGS BROADCAST EPHEMERIS FILE                                COMMENT             
    0.2980D-07  0.2235D-07 -0.1192D-06  0.5960D-07          ION ALPHA           
    0.1454D+06 -0.8192D+05  0.0000D+00 -0.4588D+06          ION BETA            
    0.931322574615D-09 0.444089209850D-14   147456     2249 DELTA-UTC: A0,A1,T,W
    18                                                      LEAP SECONDS        
                                                            END OF HEADER       
 1 23  2 11  0  0  0.0 0.213951803744D-03-0.432009983342D-11 0.000000000000D+00
    0.560000000000D+02 0.596875000000D+01 0.376015662562D-08 0.129893230058D+01
    0.448897480965D-06 0.123250945471D-01 0.108387321234D-04 0.515365882301D+04
    0.518400000000D+06-0.221654772759D-06-0.201407286501D+01 0.102445483208D-06
    0.989374482824D+00 0.188375000000D+03 0.936712780590D+00-0.785104131310D-08
    0.725030200418D-10 0.100000000000D+01 0.224800000000D+04 0.000000000000D+00
    0.200000000000D+01 0.000000000000D+00 0.465661287308D-08 0.560000000000D+02
    0.517992000000D+06 0.400000000000D+01 0.000000000000D+00 0.000000000000D+00
 2 23  2 11  0  0  0.0-0.621668994427D-03 0.250111042988D-11 0.000000000000D+00
    0.280000000000D+02 0.151250000000D+02 0.442947021950D-08 0.306175508730D+00
    0.745058059692D-06 0.200314044487D-01 0.101774930954D-04 0.515368644905D+04
    0.518400000000D+06-0.189989805222D-06-0.211076025590D+01-0.193715095520D-06
    0.967103642651D+00 0.194375000000D+03-0.132834672919D+01-0.833499004293D-08
    0.250010413937D-10 0.100000000000D+01 0.224800000000D+04 0.000000000000D+00
    0.200000000000D+01 0.000000000000D+00-0.176951289177D-07 0.280000000000D+02
    0.511218000000D+06 0.400000000000D+01 0.000000000000D+00 0.000000000000D+00
 3 23  2 11  0  0  0.0-0.364551786333D-03 0.432009983342D-11 0.000000000000D+00
    0.180000000000D+02 0.812500000000D+01 0.443661337418D-08 0.150169667284D+00
    0.398606061935D-06 0.445875839796D-02 0.520050525665D-05 0.515372098732D+04
    0.518400000000D+06-0.223517417908D-07-0.982184672025D+00 0.428408384323D-07
    0.977282474504D+00 0.286937500000D+03 0.101725704749D+01-0.821712799065D-08
    0.158578033983D-09 0.100000000000D+01 0.224800000000D+04 0.000000000000D+00
    0.200000000000D+01 0.000000000000D+00 0.186264514923D-08 0.180000000000D+02
    0.514842000000D+06 0.400000000000D+01 0.000000000000D+00 0.000000000000D+00
 4 23  2 11  0  0  0.0-0.301711261272D-04 0.807176547823D-11 0.000000000000D+00
    0.216000000000D+03-0.630000000000D+02 0.453840332843D-08 0.308656858882D+01
   -0.325776636601D-05 0.230191729497D-02 0.822357833386D-05 0.515371235847D+04
    0.518400000000D+06 0.149011611938D-07 0.989649363668D-01-0.204890966415D-07
    0.962774897313D+00 0.222500000000D+03-0.304796208123D+01-0.806747890002D-08
   -0.273939982128D-09 0.100000000000D+01 0.224800000000D+04 0.000000000000D+00
    0.200000000000D+01 0.000000000000D+00-0.465661287308D-08 0.472000000000D+03
    0.511218000000D+06 0.400000000000D+01 0.000000000000D+00 0.000000000000D+00
 5 23  2 11  0  0  0.0-0.115423928946D-03-0.147792889038D-11 0.000000000000D+00
    0.175000000000D+03 0.168125000000D+02 0.462626413104D-08-0.240765216403D+01
    0.856816768646D-06 0.576934730634D-02 0.494904816151D-05 0.515360777664D+04
    0.518400000000D+06 0.502914190292D-07-0.102737761132D+01 0.558793544769D-08
    0.964291906788D+00 0.286062500000D+03 0.113232790877D+01-0.817712632442D-08
    0.188579283655D-09 0.100000000000D+01 0.224800000000D+04 0.000000000000D+00
    0.200000000000D+01 0.000000000000D+00-0.111758708954D-07 0.175000000000D+03
    0.511218000000D+06 0.400000000000D+01 0.000000000000D+00 0.000000000000D+00
 6 23  2 11  0  0  0.0 0.570906326175D-03 0.454747350886D-11 0.000000000000D+00
    0.870000000000D+02 0.123750000000D+02 0.376622830710D-08 0.154342368417D+01
    0.696629285812D-06 0.291180750355D-02 0.952742993832D-05 0.515361014557D+04
    0.518400000000D+06 0.502914190292D-07-0.202237752032D+01-0.186264514923D-07
    0.988631828073D+00 0.206531250000D+03-0.842841015460D+00-0.767210528827D-08
    0.660741808263D-10 0.100000000000D+01 0.224800000000D+04 0.000000000000D+00
    0.200000000000D+01 0.000000000000D+00 0.372529029846D-08 0.870000000000D+02
    0.511273000000D+06 0.400000000000D+01 0.000000000000D+00 0.000000000000D+00
 7 23  2 11  0  0  0.0 0.243299175054D-03-0.693489710102D-11 0.000000000000D+00
    0.170000000000D+02 0.304062500000D+02 0.467662337156D-08 0.703207513861D+00
    0.175274908543D-05 0.167143289000D-01 0.111348927021D-04 0.515359797668D+04
    0.518400000000D+06-0.258907675743D-06 0.111451999424D+01 0.121071934700D-06
    0.950381349392D+00 0.162593750000D+03-0.222541832412D+01-0.828998816843D-08
    0.214294640518D-10 0.100000000000D+01 0.224800000000D+04 0.000000000000D+00
    0.200000000000D+01 0.000000000000D+00-0.111758708954D-07 0.170000000000D+02
    0.511218000000D+06 0.400000000000D+01 0.000000000000D+00 0.000000000000D+00
 8 23  2 11  0  0  0.0-0.107899308205D-03-0.181898940355D-11 0.000000000000D+00
    0.880000000000D+02-0.455312500000D+02 0.469626704694D-08-0.275184229687D+01
   -0.237859785557D-05 0.830516521819D-02 0.729598104954D-05 0.515365575028D+04
    0.518400000000D+06-0.145286321640D-06-0.310245935066D+01-0.614672899246D-07
    0.960431349364D+00 0.240718750000D+03 0.211838918936D+00-0.814248202420D-08
   -0.360729311538D-09 0.100000000000D+01 0.224800000000D+04 0.000000000000D+00
    0.200000000000D+01 0.000000000000D+00 0.512227416039D-08 0.880000000000D+02
    0.511218000000D+06 0.400000000000D+01 0.000000000000D+00 0.000000000000D+00
 9 23  2 11  0  0  0.0-0.220518559218D-03 0.693489710102D-11 0.000000000000D+00
    0.470000000000D+02-0.634062500000D+02 0.470305304389D-08-0.242142140062D+01
   -0.332295894623D-05 0.250759592746D-02 0.769458711147D-05 0.515367453766D+04
    0.518400000000D+06 0.633299350738D-07 0.431433018231D-01-0.186264514923D-08
    0.955984075477D+00 0.229406250000D+03 0.196442789588D+01-0.815033949435D-08
   -0.294655130712D-09 0.100000000000D+01 0.224800000000D+04 0.000000000000D+00
    0.200000000000D+01 0.000000000000D+00 0.139698386192D-08 0.470000000000D+02
    0.517068000000D+06 0.400000000000D+01 0.000000000000D+00 0.000000000000D+00
10 23  2 11  0  0  0.0-0.241799280047D-04-0.159161572810D-11 0.000000000000D+00
    0.770000000000D+02 0.101875000000D+02 0.445482841863D-08-0.789712598471D+00
    0.504776835442D-06 0.844961660914D-02 0.485777854919D-05 0.515368011856D+04
    0.518400000000D+06 0.156462192535D-06-0.984857566722D+00 0.135973095894D-06
    0.977038606060D+00 0.294500000000D+03-0.244462585902D+01-0.825141513313D-08
    0.115004790411D-09 0.100000000000D+01 0.224800000000D+04 0.000000000000D+00
    0.200000000000D+01 0.000000000000D+00 0.232830643654D-08 0.770000000000D+02
    0.515832000000D+06 0.400000000000D+01 0.000000000000D+00 0.000000000000D+00
11 23  2 11  0  0  0.0-0.100921839476D-03-0.100044417195D-10 0.000000000000D+00
    0.940000000000D+02 0.220937500000D+02 0.424374819772D-08 0.276013131798D+01
    0.108778476715D-05 0.764008378610D-03 0.925920903683D-05 0.515370738792D+04
    0.518400000000D+06-0.130385160446D-07-0.197866073560D+01-0.167638063431D-07
    0.964707422336D+00 0.203187500000D+03-0.267739687985D+01-0.794425948172D-08
    0.115719105880D-09 0.100000000000D+01 0.224800000000D+04 0.000000000000D+00
    0.200000000000D+01 0.000000000000D+00-0.884756445885D-08 0.862000000000D+03
    0.514669000000D+06 0.400000000000D+01 0.000000000000D+00 0.000000000000D+00
12 23  2 11  0  0  0.0-0.338833779097D-03-0.454747350886D-11 0.000000000000D+00
    0.370000000000D+02 0.391250000000D+02 0.481841499204D-08-0.973921867869D-01
    0.190362334251D-05 0.891600782052D-02 0.480562448502D-05 0.515365692711D+04
    0.518400000000D+06-0.763684511185D-07 0.222934849889D+01 0.109896063805D-06
    0.966155876545D+00 0.294500000000D+03 0.133321690929D+01-0.844249452093D-08
    0.107147320259D-09 0.100000000000D+01 0.224800000000D+04 0.000000000000D+00
    0.282842707634D+01 0.000000000000D+00-0.125728547573D-07 0.370000000000D+02
    0.512353000000D+06 0.400000000000D+01 0.000000000000D+00 0.000000000000D+00
13 23  2 11  0  0  0.0 0.474086031318D-03 0.613908923697D-11 0.000000000000D+00
    0.200000000000D+02-0.599062500000D+02 0.419267464173D-08 0.306084128723D+01
   -0.307895243168D-05 0.677173375152D-02 0.896677374840D-05 0.515367076492D+04
    0.518400000000D+06 0.558793544769D-08 0.201664996637D+00-0.502914190292D-07
    0.969894131092D+00 0.211343750000D+03 0.935623485937D+00-0.780889670046D-08
   -0.214651798252D-09 0.100000000000D+01 0.224800000000D+04 0.000000000000D+00
    0.200000000000D+01 0.000000000000D+00-0.111758708954D-07 0.200000000000D+02
    0.511250000000D+06 0.400000000000D+01 0.000000000000D+00 0.000000000000D+00
14 23  2 11  0  0  0.0-0.300356186926D-04 0.875388650456D-11 0.000000000000D+00
    0.500000000000D+01 0.409375000000D+02 0.512628495892D-08-0.433953538307D-01
    0.213086605072D-05 0.263844861183D-02 0.502355396748D-05 0.515366269112D+04
    0.518400000000D+06-0.372529029846D-08 0.219233645790D+01 0.298023223877D-07
    0.949495223339D+00 0.276093750000D+03-0.308173992634D+01-0.848106755622D-08
    0.124648049234D-09 0.100000000000D+01 0.224800000000D+04 0.000000000000D+00
    0.200000000000D+01 0.000000000000D+00-0.791624188423D-08 0.500000000000D+01
    0.511251000000D+06 0.400000000000D+01 0.000000000000D+00 0.000000000000D+00
